BEIDOU-2 G8             
1 44231U 19027A   26172.56504258 -.00000249  00000+0  00000+0 0  9990
2 44231   1.6705  74.5245 0010115 282.4745 260.6959  1.00269615 26120
COSMOS 2534 [GLONASS-M] 
1 44299U 19030A   26172.37658476  .00000074  00000+0  00000+0 0  9994
2 44299  64.3690 192.4752 0013451 275.1251 197.9596  2.13102244 55011
BEIDOU-3 IGSO-2         
1 44337U 19035A   26172.36139090 -.00000077  00000+0  00000+0 0  9991
2 44337  55.2486 158.8257 0039300 216.3163 144.0827  1.00265382 25714
NAVSTAR 78 (USA 293)    
1 44506U 19056A   26170.88008800 -.00000092  00000+0  00000+0 0  9998
2 44506  55.6357 331.0347 0062144 197.6254 334.2547  2.00569711 50121
BEIDOU-3 M24            
1 44542U 19061A   26172.00112345  .00000076  00000+0  00000+0 0  9991
2 44542  54.3964 182.5989 0008377 358.6905   1.3314  1.86229071 45866
BEIDOU-3 M23            
1 44543U 19061B   26171.17384045  .00000066  00000+0  00000+0 0  9996
2 44543  54.3949 182.5950 0005754 338.0602  98.8908  1.86227398 45859
EUTELSAT 5 WEST B       
1 44624U 19067A   26171.39103049 -.00000047  00000+0  00000+0 0  9999
2 44624   0.0621 352.3440 0003110  96.7408 315.3001  1.00270225 24469
BEIDOU-3 M22            
1 44793U 19078A   26171.30405669 -.00000090  00000+0  00000+0 0  9990
2 44793  53.9328 299.7182 0006301  50.9808 309.0727  1.86227062 44704
BEIDOU-3 M21            
1 44794U 19078B   26169.29611751 -.00000076  00000+0  00000+0 0  9991
2 44794  53.9076 299.7502 0004064  49.2520 310.7784  1.86227678 44678
COSMOS 2544 [GLONASS-M] 
1 44850U 19088A   26169.43716075 -.00000023  00000+0  00000+0 0  9998
2 44850  65.5663  73.6893 0013127 258.8621 101.0278  2.13102753 50745
BEIDOU-3 M19            
1 44864U 19090A   26172.49311008 -.00000083  00000+0  00000+0 0  9999
2 44864  56.5623  62.6475 0017633 298.0530 242.7330  1.86231615 44318
BEIDOU-3 M20            
1 44865U 19090B   26172.36393685 -.00000082  00000+0  00000+0 0  9996
2 44865  56.5642  62.6865 0015435 312.5734 231.1952  1.86231494 44293
BEIDOU-3 G2             
1 45344U 20017A   26172.54859609 -.00000143  00000+0  00000+0 0  9991
2 45344   2.8738  47.4324 0002144  33.8499 106.0376  1.00271742 23306
COSMOS 2545 [GLONASS-M] 
1 45358U 20018A   26172.44771125 -.00000070  00000+0  00000+0 0  9991
2 45358  64.3522 312.2691 0008538 229.7287 130.1903  2.13102330 48750
BEIDOU-3 G3             
1 45807U 20040A   26172.05961119 -.00000357  00000+0  00000+0 0  9994
2 45807   2.4578  67.5071 0002606 323.9742   9.6886  1.00277648 22109
NAVSTAR 79 (USA 304)    
1 45854U 20041A   26170.72346014 -.00000092  00000+0  00000+0 0  9996
2 45854  56.6713  28.8441 0064001 204.6185 152.4669  2.00558579 44080
GALAXY 30 (G-30)        
1 46114U 20056C   26171.39489199  .00000032  00000+0  00000+0 0  9991
2 46114   0.0183  12.9122 0002284  75.3591 197.4940  1.00273107 21326
COSMOS 2547 [GLONASS-K] 
1 46805U 20075A   26171.22947998  .00000062  00000+0  00000+0 0  9990
2 46805  64.5997 192.3739 0009338 239.8081 120.1435  2.13100029 43970
NAVSTAR 80 (USA 309)    
1 46826U 20078A   26171.27904749  .00000028  00000+0  00000+0 0  9990
2 46826  53.9792 210.6528 0073634 207.3587 167.3205  2.00564914 41574
NAVSTAR 81 (USA 319)    
1 48859U 21054A   26171.00487014 -.00000094  00000+0  00000+0 0  9999
2 48859  55.1728 332.3454 0025356 228.5950 134.3763  2.00568793 36815
QZS-1R (MICHIBIKI-1R)   
1 49336U 21096A   26170.63258758 -.00000290  00000+0  00000+0 0  9993
2 49336  37.4674  79.5460 0754800 271.8525 278.0167  1.00254705 17039
GSAT0223 (GALILEO 27)   
1 49809U 21116A   26171.21352742 -.00000095  00000+0  00000+0 0  9997
2 49809  57.1598 341.5920 0001560 185.4323 351.7235  1.70476002 28237
GSAT0224 (GALILEO 28)   
1 49810U 21116B   26168.98509303 -.00000091  00000+0  00000+0 0  9992
2 49810  57.1613 341.6514 0001177 159.9709 202.1698  1.70475877 28225
COSMOS 2557 [GLONASS-K] 
1 52984U 22075A   26171.86302699 -.00000067  00000+0  00000+0 0  9996
2 52984  64.2965 314.3556 0010286 273.9736  85.9018  2.13102004 30796
COSMOS 2559 [GLONASS-K] 
1 54031U 22130A   26169.33634979 -.00000058  00000+0  00000+0 0  9991
2 54031  64.2705 314.5280 0012585 178.2040 181.7898  2.13101593 28710
COSMOS 2564 [GLONASS-M] 
1 54377U 22161A   26171.05664634  .00000061  00000+0  00000+0 0  9994
2 54377  64.7420 192.6165 0012215 224.8634 135.0824  2.13102033 27693
NAVSTAR 82 (USA 343)    
1 55268U 23009A   26170.94526515  .00000063  00000+0  00000+0 0  9990
2 55268  55.1232 148.4103 0006177 317.2306  41.0383  2.00571329 25296
BEIDOU-3 G4             
1 56564U 23066A   26172.58123920 -.00000282  00000+0  00000+0 0  9992
2 56564   0.4811 332.6937 0004518 178.0024 108.3779  1.00272609 11436
NVS-01 (IRNSS-1J)       
1 56759U 23076A   26171.45373823 -.00000339  00000+0  00000+0 0  9996
2 56759   2.1573 244.1904 0003064  17.9405 299.3162  1.00277443 11142
COSMOS 2569 [GLONASS-K2]
1 57517U 23114A   26172.00750013 -.00000048  00000+0  00000+0 0  9991
2 57517  65.3042  72.4915 0010518 296.8945  63.0344  2.13103720 22343
BEIDOU-3 M28            
1 58654U 23207A   26172.05798505 -.00000081  00000+0  00000+0 0  9997
2 58654  55.7561  62.1723 0003138 350.0414   9.9905  1.86229753 16914
